{"fetched_at":"2026-03-30T09:12:31Z","count":15922,"tles":[{"name":"STARLINK-31146","line1":"1 58769U 24011E   26087.84250928  .00000755  00000+0  37599-4 0  9997","line2":"2 58769  53.1613 284.6437 0001368  97.6960 262.4196 15.30210505123205","category":"Starlink"}]}